STARLINK-35717          
1 66839U 25280U   25364.91670139 -.02045205  00000+0 -55807-1 0  9990
2 66839  69.9993 148.6475 0003742 280.1403 108.3951 15.40885807  5815
STARLINK-35837          
1 66840U 25280V   25364.91670139 -.02021673  00000+0 -62834-1 0  9993
2 66840  69.9996 148.6915 0003495 275.4093  73.8728 15.36892964  5811
STARLINK-35715          
1 66841U 25280W   25364.91670139 -.02021751  00000+0 -62828-1 0  9994
2 66841  69.9989 148.6893 0003545 275.0670  76.1771 15.36896343  5811
STARLINK-35769          
1 66842U 25280X   25364.77731646 -.00144503  00000+0 -31651-2 0  9990
2 66842  69.9991 148.9932 0007693 327.6757  32.3953 15.44433869  5736
STARLINK-35997          
1 66843U 25280Y   25364.91670139 -.02043088  00000+0 -54678-1 0  9997
2 66843  69.9990 148.6276 0003546 277.9928 127.2515 15.41464262  5819
STARLINK-36073          
1 66844U 25280Z   25364.91670139 -.02041567  00000+0 -58318-1 0  9993
2 66844  69.9993 148.6517 0003645 276.8308 107.7678 15.39501964  5812
STARLINK-36068          
1 66845U 25280AA  25364.91670139 -.02050805  00000+0 -52267-1 0  9996
2 66845  69.9990 148.6076 0003496 279.3721 143.6531 15.42929914  5811
STARLINK-36055          
1 66846U 25280AB  25364.91670139 -.02101627  00000+0 -66157-1 0  9999
2 66846  69.9994 148.6947 0003481 271.1898  76.6319 15.36060157  5819
STARLINK-36061          
1 66847U 25280AC  25364.91670139 -.02023699  00000+0 -63156-1 0  9998
2 66847  69.9994 148.6795 0003541 276.8446  82.3777 15.36769439  5764
STARLINK-36091          
1 66848U 25281A   25364.35756693  .00105643  00000+0  17790-2 0  9998
2 66848  43.0029  16.6331 0002963 261.7172  98.3353 15.50629761  5567
STARLINK-36102          
1 66849U 25281B   25364.42165018  .00111967  00000+0  18867-2 0  9994
2 66849  42.9976  16.2506 0000428 229.5769 130.5054 15.50585664  5576
STARLINK-36105          
1 66850U 25281C   25364.42130169  .00103341  00000+0  17422-2 0  9998
2 66850  43.0021  16.2509 0002353 278.3078  81.7516 15.50610309  5573
