CCSDS_OMM_VERS = 2.0
CREATION_DATE  = 
ORIGINATOR     = 

OBJECT_NAME    = STARLINK-35717
OBJECT_ID      = 2025-280U
CENTER_NAME    = EARTH
REF_FRAME      = TEME
TIME_SYSTEM    = UTC
MEAN_ELEMENT_THEORY = SGP/SGP4

EPOCH          = 2025-12-30T22:00:03.000096
MEAN_MOTION    = 15.40885807
ECCENTRICITY   = .00037422
INCLINATION    = 69.9993
RA_OF_ASC_NODE = 148.6475
ARG_OF_PERICENTER = 280.1403
MEAN_ANOMALY   = 108.3951

EPHEMERIS_TYPE = 0
CLASSIFICATION_TYPE = U
NORAD_CAT_ID   = 66839
ELEMENT_SET_NO = 999
REV_AT_EPOCH   = 581
BSTAR          = -.5580686E-1
MEAN_MOTION_DOT = -.2045205E-1
MEAN_MOTION_DDOT = 0

CCSDS_OMM_VERS = 2.0
CREATION_DATE  = 
ORIGINATOR     = 

OBJECT_NAME    = STARLINK-35837
OBJECT_ID      = 2025-280V
CENTER_NAME    = EARTH
REF_FRAME      = TEME
TIME_SYSTEM    = UTC
MEAN_ELEMENT_THEORY = SGP/SGP4

EPOCH          = 2025-12-30T22:00:03.000096
MEAN_MOTION    = 15.36892964
ECCENTRICITY   = .0003495
INCLINATION    = 69.9996
RA_OF_ASC_NODE = 148.6915
ARG_OF_PERICENTER = 275.4093
MEAN_ANOMALY   = 73.8728

EPHEMERIS_TYPE = 0
CLASSIFICATION_TYPE = U
NORAD_CAT_ID   = 66840
ELEMENT_SET_NO = 999
REV_AT_EPOCH   = 581
BSTAR          = -.62833697E-1
MEAN_MOTION_DOT = -.2021673E-1
MEAN_MOTION_DDOT = 0

CCSDS_OMM_VERS = 2.0
CREATION_DATE  = 
ORIGINATOR     = 

OBJECT_NAME    = STARLINK-35715
OBJECT_ID      = 2025-280W
CENTER_NAME    = EARTH
REF_FRAME      = TEME
TIME_SYSTEM    = UTC
MEAN_ELEMENT_THEORY = SGP/SGP4

EPOCH          = 2025-12-30T22:00:03.000096
MEAN_MOTION    = 15.36896343
ECCENTRICITY   = .0003545
INCLINATION    = 69.9989
RA_OF_ASC_NODE = 148.6893
ARG_OF_PERICENTER = 275.0670
MEAN_ANOMALY   = 76.1771

EPHEMERIS_TYPE = 0
CLASSIFICATION_TYPE = U
NORAD_CAT_ID   = 66841
ELEMENT_SET_NO = 999
REV_AT_EPOCH   = 581
BSTAR          = -.62828343E-1
MEAN_MOTION_DOT = -.2021751E-1
MEAN_MOTION_DDOT = 0

CCSDS_OMM_VERS = 2.0
CREATION_DATE  = 
ORIGINATOR     = 

OBJECT_NAME    = STARLINK-35769
OBJECT_ID      = 2025-280X
CENTER_NAME    = EARTH
REF_FRAME      = TEME
TIME_SYSTEM    = UTC
MEAN_ELEMENT_THEORY = SGP/SGP4

EPOCH          = 2025-12-30T18:39:20.142144
MEAN_MOTION    = 15.44433869
ECCENTRICITY   = .00076936
INCLINATION    = 69.9991
RA_OF_ASC_NODE = 148.9932
ARG_OF_PERICENTER = 327.6757
MEAN_ANOMALY   = 32.3953

EPHEMERIS_TYPE = 0
CLASSIFICATION_TYPE = U
NORAD_CAT_ID   = 66842
ELEMENT_SET_NO = 999
REV_AT_EPOCH   = 573
BSTAR          = -.31651202E-2
MEAN_MOTION_DOT = -.144503E-2
MEAN_MOTION_DDOT = 0

CCSDS_OMM_VERS = 2.0
CREATION_DATE  = 
ORIGINATOR     = 

OBJECT_NAME    = STARLINK-35997
OBJECT_ID      = 2025-280Y
CENTER_NAME    = EARTH
REF_FRAME      = TEME
TIME_SYSTEM    = UTC
MEAN_ELEMENT_THEORY = SGP/SGP4

EPOCH          = 2025-12-30T22:00:03.000096
MEAN_MOTION    = 15.41464262
ECCENTRICITY   = .00035468
INCLINATION    = 69.9990
RA_OF_ASC_NODE = 148.6276
ARG_OF_PERICENTER = 277.9928
MEAN_ANOMALY   = 127.2515

EPHEMERIS_TYPE = 0
CLASSIFICATION_TYPE = U
NORAD_CAT_ID   = 66843
ELEMENT_SET_NO = 999
REV_AT_EPOCH   = 581
BSTAR          = -.54678088E-1
MEAN_MOTION_DOT = -.2043088E-1
MEAN_MOTION_DDOT = 0

CCSDS_OMM_VERS = 2.0
CREATION_DATE  = 
ORIGINATOR     = 

OBJECT_NAME    = STARLINK-36073
OBJECT_ID      = 2025-280Z
CENTER_NAME    = EARTH
REF_FRAME      = TEME
TIME_SYSTEM    = UTC
MEAN_ELEMENT_THEORY = SGP/SGP4

EPOCH          = 2025-12-30T22:00:03.000096
MEAN_MOTION    = 15.39501964
ECCENTRICITY   = .00036453
INCLINATION    = 69.9993
RA_OF_ASC_NODE = 148.6517
ARG_OF_PERICENTER = 276.8308
MEAN_ANOMALY   = 107.7678

EPHEMERIS_TYPE = 0
CLASSIFICATION_TYPE = U
NORAD_CAT_ID   = 66844
ELEMENT_SET_NO = 999
REV_AT_EPOCH   = 581
BSTAR          = -.58317934E-1
MEAN_MOTION_DOT = -.2041567E-1
MEAN_MOTION_DDOT = 0

CCSDS_OMM_VERS = 2.0
CREATION_DATE  = 
ORIGINATOR     = 

OBJECT_NAME    = STARLINK-36068
OBJECT_ID      = 2025-280AA
CENTER_NAME    = EARTH
REF_FRAME      = TEME
TIME_SYSTEM    = UTC
MEAN_ELEMENT_THEORY = SGP/SGP4

EPOCH          = 2025-12-30T22:00:03.000096
MEAN_MOTION    = 15.42929914
ECCENTRICITY   = .00034964
INCLINATION    = 69.9990
RA_OF_ASC_NODE = 148.6076
ARG_OF_PERICENTER = 279.3721
MEAN_ANOMALY   = 143.6531

EPHEMERIS_TYPE = 0
CLASSIFICATION_TYPE = U
NORAD_CAT_ID   = 66845
ELEMENT_SET_NO = 999
REV_AT_EPOCH   = 581
BSTAR          = -.5226671E-1
MEAN_MOTION_DOT = -.2050805E-1
MEAN_MOTION_DDOT = 0

CCSDS_OMM_VERS = 2.0
CREATION_DATE  = 
ORIGINATOR     = 

OBJECT_NAME    = STARLINK-36055
OBJECT_ID      = 2025-280AB
CENTER_NAME    = EARTH
REF_FRAME      = TEME
TIME_SYSTEM    = UTC
MEAN_ELEMENT_THEORY = SGP/SGP4

EPOCH          = 2025-12-30T22:00:03.000096
MEAN_MOTION    = 15.36060157
ECCENTRICITY   = .00034813
INCLINATION    = 69.9994
RA_OF_ASC_NODE = 148.6947
ARG_OF_PERICENTER = 271.1898
MEAN_ANOMALY   = 76.6319

EPHEMERIS_TYPE = 0
CLASSIFICATION_TYPE = U
NORAD_CAT_ID   = 66846
ELEMENT_SET_NO = 999
REV_AT_EPOCH   = 581
BSTAR          = -.661568E-1
MEAN_MOTION_DOT = -.2101627E-1
MEAN_MOTION_DDOT = 0

CCSDS_OMM_VERS = 2.0
CREATION_DATE  = 
ORIGINATOR     = 

OBJECT_NAME    = STARLINK-36061
OBJECT_ID      = 2025-280AC
CENTER_NAME    = EARTH
REF_FRAME      = TEME
TIME_SYSTEM    = UTC
MEAN_ELEMENT_THEORY = SGP/SGP4

EPOCH          = 2025-12-30T22:00:03.000096
MEAN_MOTION    = 15.36769439
ECCENTRICITY   = .00035414
INCLINATION    = 69.9994
RA_OF_ASC_NODE = 148.6795
ARG_OF_PERICENTER = 276.8446
MEAN_ANOMALY   = 82.3777

EPHEMERIS_TYPE = 0
CLASSIFICATION_TYPE = U
NORAD_CAT_ID   = 66847
ELEMENT_SET_NO = 999
REV_AT_EPOCH   = 576
BSTAR          = -.63156338E-1
MEAN_MOTION_DOT = -.2023699E-1
MEAN_MOTION_DDOT = 0

CCSDS_OMM_VERS = 2.0
CREATION_DATE  = 
ORIGINATOR     = 

OBJECT_NAME    = STARLINK-36091
OBJECT_ID      = 2025-281A
CENTER_NAME    = EARTH
REF_FRAME      = TEME
TIME_SYSTEM    = UTC
MEAN_ELEMENT_THEORY = SGP/SGP4

EPOCH          = 2025-12-30T08:34:53.782752
MEAN_MOTION    = 15.50629761
ECCENTRICITY   = .0002963
INCLINATION    = 43.0029
RA_OF_ASC_NODE = 16.6331
ARG_OF_PERICENTER = 261.7172
MEAN_ANOMALY   = 98.3353

EPHEMERIS_TYPE = 0
CLASSIFICATION_TYPE = U
NORAD_CAT_ID   = 66848
ELEMENT_SET_NO = 999
REV_AT_EPOCH   = 556
BSTAR          = .17790059E-2
MEAN_MOTION_DOT = .105643E-2
MEAN_MOTION_DDOT = 0

CCSDS_OMM_VERS = 2.0
CREATION_DATE  = 
ORIGINATOR     = 

OBJECT_NAME    = STARLINK-36102
OBJECT_ID      = 2025-281B
CENTER_NAME    = EARTH
REF_FRAME      = TEME
TIME_SYSTEM    = UTC
MEAN_ELEMENT_THEORY = SGP/SGP4

EPOCH          = 2025-12-30T10:07:10.575552
MEAN_MOTION    = 15.50585664
ECCENTRICITY   = .00004288
INCLINATION    = 42.9976
RA_OF_ASC_NODE = 16.2506
ARG_OF_PERICENTER = 229.5769
MEAN_ANOMALY   = 130.5054

EPHEMERIS_TYPE = 0
CLASSIFICATION_TYPE = U
NORAD_CAT_ID   = 66849
ELEMENT_SET_NO = 999
REV_AT_EPOCH   = 557
BSTAR          = .18867376E-2
MEAN_MOTION_DOT = .111967E-2
MEAN_MOTION_DDOT = 0

CCSDS_OMM_VERS = 2.0
CREATION_DATE  = 
ORIGINATOR     = 

OBJECT_NAME    = STARLINK-36105
OBJECT_ID      = 2025-281C
CENTER_NAME    = EARTH
REF_FRAME      = TEME
TIME_SYSTEM    = UTC
MEAN_ELEMENT_THEORY = SGP/SGP4

EPOCH          = 2025-12-30T10:06:40.466016
MEAN_MOTION    = 15.50610309
ECCENTRICITY   = .0002353
INCLINATION    = 43.0021
RA_OF_ASC_NODE = 16.2509
ARG_OF_PERICENTER = 278.3078
MEAN_ANOMALY   = 81.7516

EPHEMERIS_TYPE = 0
CLASSIFICATION_TYPE = U
NORAD_CAT_ID   = 66850
ELEMENT_SET_NO = 999
REV_AT_EPOCH   = 557
BSTAR          = .17421617E-2
MEAN_MOTION_DOT = .103341E-2
MEAN_MOTION_DDOT = 0

